start=new Date('2022-01-16T00:00:00.000Z').valueOf();
sats=[{"TIME_SYSTEM":"UTC","FILE":"3273762","MEAN_MOTION_DDOT":"0.0000000000000","PERIOD":"95.592","OBJECT_TYPE":"PAYLOAD","ECCENTRICITY":"0.00019990","NORAD_CAT_ID":"48401","SEMIMAJOR_AXIS":"6925.356","EPOCH":"2022-01-15T11:28:37.189344","APOAPSIS":"548.605","LAUNCH_DATE":"2021-05-04","MEAN_MOTION_DOT":"0.00001230","RA_OF_ASC_NODE":"299.1819","TLE_LINE1":"1 48401U 21038BA  22015.47820821  .00001230  00000-0  10149-3 0  9997","BSTAR":"0.00010149000000","REV_AT_EPOCH":"3907","CENTER_NAME":"EARTH","REF_FRAME":"TEME","DECAY_DATE":null,"MEAN_ELEMENT_THEORY":"SGP4","ARG_OF_PERICENTER":"73.7630","COUNTRY_CODE":"US","EPHEMERIS_TYPE":"0","OBJECT_NAME":"STARLINK-2571","RCS_SIZE":"LARGE","MEAN_ANOMALY":"286.3579","GP_ID":"193917065","ELEMENT_SET_NO":"999","CLASSIFICATION_TYPE":"U","MEAN_MOTION":"15.06397581","OBJECT_ID":"2021-038BA","SITE":"AFETR","PERIAPSIS":"545.837","TLE_LINE2":"2 48401  53.0567 299.1819 0001999  73.7630 286.3579 15.06397581 39072","INCLINATION":"53.0567"},{"INCLINATION":"53.0541","TLE_LINE2":"2 48402  53.0541 299.0662 0001828  58.6301 301.4867 15.06417364 39080","PERIAPSIS":"545.894","MEAN_MOTION":"15.06417364","CLASSIFICATION_TYPE":"U","OBJECT_ID":"2021-038BB","SITE":"AFETR","ELEMENT_SET_NO":"999","GP_ID":"193915813","MEAN_ANOMALY":"301.4867","OBJECT_NAME":"STARLINK-2560","RCS_SIZE":"LARGE","EPHEMERIS_TYPE":"0","COUNTRY_CODE":"US","ARG_OF_PERICENTER":"58.6301","MEAN_ELEMENT_THEORY":"SGP4","REF_FRAME":"TEME","DECAY_DATE":null,"CENTER_NAME":"EARTH","REV_AT_EPOCH":"3908","RA_OF_ASC_NODE":"299.0662","LAUNCH_DATE":"2021-05-04","APOAPSIS":"548.426","MEAN_MOTION_DOT":"0.00009396","BSTAR":"0.00064853000000","TLE_LINE1":"1 48402U 21038BB  22015.50495197  .00009396  00000-0  64853-3 0  9998","ECCENTRICITY":"0.00018280","OBJECT_TYPE":"PAYLOAD","EPOCH":"2022-01-15T12:07:07.850208","SEMIMAJOR_AXIS":"6925.295","NORAD_CAT_ID":"48402","PERIOD":"95.591","MEAN_MOTION_DDOT":"0.0000000000000","FILE":"3273762","TIME_SYSTEM":"UTC"},{"EPOCH":"2022-01-15T12:01:49.501632","NORAD_CAT_ID":"48403","SEMIMAJOR_AXIS":"6925.341","ECCENTRICITY":"0.00020600","OBJECT_TYPE":"PAYLOAD","PERIOD":"95.592","FILE":"3273762","MEAN_MOTION_DDOT":"0.0000000000000","TIME_SYSTEM":"UTC","ARG_OF_PERICENTER":"64.7423","MEAN_ELEMENT_THEORY":"SGP4","DECAY_DATE":null,"REF_FRAME":"TEME","CENTER_NAME":"EARTH","REV_AT_EPOCH":"3908","BSTAR":"0.00020960000000","TLE_LINE1":"1 48403U 21038BC  22015.50126738  .00002842  00000-0  20960-3 0  9991","RA_OF_ASC_NODE":"299.0670","APOAPSIS":"548.633","LAUNCH_DATE":"2021-05-04","MEAN_MOTION_DOT":"0.00002842","GP_ID":"193915563","MEAN_ANOMALY":"295.3779","RCS_SIZE":"LARGE","OBJECT_NAME":"STARLINK-2561","EPHEMERIS_TYPE":"0","COUNTRY_CODE":"US","INCLINATION":"53.0554","TLE_LINE2":"2 48403  53.0554 299.0670 0002060  64.7423 295.3779 15.06402338 39084","PERIAPSIS":"545.780","OBJECT_ID":"2021-038BC","SITE":"AFETR","MEAN_MOTION":"15.06402338","CLASSIFICATION_TYPE":"U","ELEMENT_SET_NO":"999"},{"REV_AT_EPOCH":"3967","MEAN_MOTION_DOT":"0.00001626","LAUNCH_DATE":"2021-05-04","APOAPSIS":"548.668","RA_OF_ASC_NODE":"299.0984","TLE_LINE1":"1 48404U 21038BD  22015.49758230  .00001626  00000-0  12806-3 0  9997","BSTAR":"0.00012806000000","MEAN_ELEMENT_THEORY":"SGP4","ARG_OF_PERICENTER":"69.2667","CENTER_NAME":"EARTH","REF_FRAME":"TEME","DECAY_DATE":null,"MEAN_MOTION_DDOT":"0.0000000000000","FILE":"3273963","PERIOD":"95.592","TIME_SYSTEM":"UTC","OBJECT_TYPE":"PAYLOAD","ECCENTRICITY":"0.00020910","SEMIMAJOR_AXIS":"6925.354","NORAD_CAT_ID":"48404","EPOCH":"2022-01-15T11:56:31.110720","CLASSIFICATION_TYPE":"U","MEAN_MOTION":"15.06398087","OBJECT_ID":"2021-038BD","SITE":"AFETR","ELEMENT_SET_NO":"999","TLE_LINE2":"2 48404  53.0552 299.0984 0002091  69.2667 290.8546 15.06398087 39677","INCLINATION":"53.0552","PERIAPSIS":"545.771","OBJECT_NAME":"STARLINK-2593","RCS_SIZE":"LARGE","COUNTRY_CODE":"US","EPHEMERIS_TYPE":"0","GP_ID":"193923584","MEAN_ANOMALY":"290.8546"},{"REV_AT_EPOCH":"3967","BSTAR":"0.00018364000000","TLE_LINE1":"1 48405U 21038BE  22015.49388494  .00002456  00000-0  18364-3 0  9996","RA_OF_ASC_NODE":"299.1181","LAUNCH_DATE":"2021-05-04","APOAPSIS":"548.492","MEAN_MOTION_DOT":"0.00002456","ARG_OF_PERICENTER":"72.7621","MEAN_ELEMENT_THEORY":"SGP4","REF_FRAME":"TEME","DECAY_DATE":null,"CENTER_NAME":"EARTH","PERIOD":"95.591","MEAN_MOTION_DDOT":"0.0000000000000","FILE":"3273963","TIME_SYSTEM":"UTC","EPOCH":"2022-01-15T11:51:11.658816","NORAD_CAT_ID":"48405","SEMIMAJOR_AXIS":"6925.293","ECCENTRICITY":"0.00019260","OBJECT_TYPE":"PAYLOAD","OBJECT_ID":"2021-038BE","SITE":"AFETR","MEAN_MOTION":"15.06418043","CLASSIFICATION_TYPE":"U","ELEMENT_SET_NO":"999","INCLINATION":"53.0562","TLE_LINE2":"2 48405  53.0562 299.1181 0001926  72.7621 287.3579 15.06418043 39676","PERIAPSIS":"545.824","RCS_SIZE":"LARGE","OBJECT_NAME":"STARLINK-2570","EPHEMERIS_TYPE":"0","COUNTRY_CODE":"US","GP_ID":"193923576","MEAN_ANOMALY":"287.3579"},{"MEAN_ANOMALY":"287.5834","GP_ID":"193923585","EPHEMERIS_TYPE":"0","COUNTRY_CODE":"US","RCS_SIZE":"LARGE","OBJECT_NAME":"STARLINK-2568","PERIAPSIS":"546.044","INCLINATION":"53.0559","TLE_LINE2":"2 48406  53.0559 299.1212 0001659  72.5337 287.5834 15.06406895 39671","ELEMENT_SET_NO":"999","SITE":"AFETR","OBJECT_ID":"2021-038BF","MEAN_MOTION":"15.06406895","CLASSIFICATION_TYPE":"U","EPOCH":"2022-01-15T11:45:53.651520","SEMIMAJOR_AXIS":"6925.327","NORAD_CAT_ID":"48406","ECCENTRICITY":"0.00016590","OBJECT_TYPE":"PAYLOAD","TIME_SYSTEM":"UTC","PERIOD":"95.592","FILE":"3273963","MEAN_MOTION_DDOT":"0.0000000000000","DECAY_DATE":null,"REF_FRAME":"TEME","CENTER_NAME":"EARTH","ARG_OF_PERICENTER":"72.5337","MEAN_ELEMENT_THEORY":"SGP4","BSTAR":"0.00014487000000","TLE_LINE1":"1 48406U 21038BF  22015.49020430  .00001877  00000-0  14487-3 0  9998","RA_OF_ASC_NODE":"299.1212","APOAPSIS":"548.341","LAUNCH_DATE":"2021-05-04","MEAN_MOTION_DOT":"0.00001877","REV_AT_EPOCH":"3967"},{"MEAN_ELEMENT_THEORY":"SGP4","ARG_OF_PERICENTER":"71.1122","CENTER_NAME":"EARTH","DECAY_DATE":null,"REF_FRAME":"TEME","REV_AT_EPOCH":"3966","TLE_LINE1":"1 48407U 21038BG  22015.48652467  .00001662  00000-0  13047-3 0  9992","BSTAR":"0.00013047000000","LAUNCH_DATE":"2021-05-04","MEAN_MOTION_DOT":"0.00001662","APOAPSIS":"548.558","RA_OF_ASC_NODE":"299.1338","NORAD_CAT_ID":"48407","SEMIMAJOR_AXIS":"6925.354","EPOCH":"2022-01-15T11:40:35.731488","OBJECT_TYPE":"PAYLOAD","ECCENTRICITY":"0.00019330","FILE":"3274019","MEAN_MOTION_DDOT":"0.0000000000000","PERIOD":"95.592","TIME_SYSTEM":"UTC","TLE_LINE2":"2 48407  53.0557 299.1338 0001933  71.1122 289.0077 15.06398188 39661","INCLINATION":"53.0557","PERIAPSIS":"545.880","OBJECT_ID":"2021-038BG","SITE":"AFETR","CLASSIFICATION_TYPE":"U","MEAN_MOTION":"15.06398188","ELEMENT_SET_NO":"999","GP_ID":"193924537","MEAN_ANOMALY":"289.0077","RCS_SIZE":"LARGE","OBJECT_NAME":"STARLINK-2595","COUNTRY_CODE":"US","EPHEMERIS_TYPE":"0"},{"CENTER_NAME":"EARTH","REF_FRAME":"TEME","DECAY_DATE":null,"MEAN_ELEMENT_THEORY":"SGP4","ARG_OF_PERICENTER":"72.3773","LAUNCH_DATE":"2021-05-04","APOAPSIS":"548.394","MEAN_MOTION_DOT":"0.00001850","RA_OF_ASC_NODE":"299.1490","TLE_LINE1":"1 48408U 21038BH  22015.48283396  .00001850  00000-0  14303-3 0  9999","BSTAR":"0.00014303000000","REV_AT_EPOCH":"3966","OBJECT_TYPE":"PAYLOAD","ECCENTRICITY":"0.00017430","SEMIMAJOR_AXIS":"6925.322","NORAD_CAT_ID":"48408","EPOCH":"2022-01-15T11:35:16.854144","TIME_SYSTEM":"UTC","MEAN_MOTION_DDOT":"0.0000000000000","FILE":"3274019","PERIOD":"95.592","PERIAPSIS":"545.980","TLE_LINE2":"2 48408  53.0568 299.1490 0001743  72.3773 287.7406 15.06408637 39669","INCLINATION":"53.0568","ELEMENT_SET_NO":"999","CLASSIFICATION_TYPE":"U","MEAN_MOTION":"15.06408637","SITE":"AFETR","OBJECT_ID":"2021-038BH","MEAN_ANOMALY":"287.7406","GP_ID":"193924533","COUNTRY_CODE":"US","EPHEMERIS_TYPE":"0","OBJECT_NAME":"STARLINK-2592","RCS_SIZE":"LARGE"},{"REF_FRAME":"TEME","DECAY_DATE":null,"CENTER_NAME":"EARTH","ARG_OF_PERICENTER":"64.6802","MEAN_ELEMENT_THEORY":"SGP4","BSTAR":"0.00018372000000","TLE_LINE1":"1 48409U 21038BJ  22015.50633148  .00002457  00000-0  18372-3 0  9991","RA_OF_ASC_NODE":"304.0479","APOAPSIS":"548.645","LAUNCH_DATE":"2021-05-04","MEAN_MOTION_DOT":"0.00002457","REV_AT_EPOCH":"3960","EPOCH":"2022-01-15T12:09:07.039872","NORAD_CAT_ID":"48409","SEMIMAJOR_AXIS":"6925.304","ECCENTRICITY":"0.00021310","OBJECT_TYPE":"PAYLOAD","TIME_SYSTEM":"UTC","PERIOD":"95.591","FILE":"3274020","MEAN_MOTION_DDOT":"0.0000000000000","PERIAPSIS":"545.693","INCLINATION":"53.0573","TLE_LINE2":"2 48409  53.0573 304.0479 0002131  64.6802 295.4407 15.06414573 39605","ELEMENT_SET_NO":"999","OBJECT_ID":"2021-038BJ","SITE":"AFETR","MEAN_MOTION":"15.06414573","CLASSIFICATION_TYPE":"U","MEAN_ANOMALY":"295.4407","GP_ID":"193924955","EPHEMERIS_TYPE":"0","COUNTRY_CODE":"US","RCS_SIZE":"LARGE","OBJECT_NAME":"STARLINK-2596"},{"GP_ID":"193946442","MEAN_ANOMALY":"329.7689","RCS_SIZE":"LARGE","OBJECT_NAME":"STARLINK-2563","COUNTRY_CODE":"US","EPHEMERIS_TYPE":"0","TLE_LINE2":"2 48410  53.0544 252.2096 0002223  71.9340 329.7689 15.06411602  3596","INCLINATION":"53.0544","PERIAPSIS":"545.639","OBJECT_ID":"2021-038BK","SITE":"AFETR","CLASSIFICATION_TYPE":"U","MEAN_MOTION":"15.06411602","ELEMENT_SET_NO":"999","NORAD_CAT_ID":"48410","SEMIMAJOR_AXIS":"6925.313","EPOCH":"2022-01-15T22:00:01.999584","OBJECT_TYPE":"PAYLOAD","ECCENTRICITY":"0.00022230","FILE":"3274074","MEAN_MOTION_DDOT":"0.0000000000000","PERIOD":"95.591","TIME_SYSTEM":"UTC","MEAN_ELEMENT_THEORY":"SGP4","ARG_OF_PERICENTER":"71.9340","CENTER_NAME":"EARTH","REF_FRAME":"TEME","DECAY_DATE":null,"REV_AT_EPOCH":"359","TLE_LINE1":"1 48410U 21038BK  22015.91668981 -.00013345  00000-0 -87837-3 0  9993","BSTAR":"-0.00087837000000","MEAN_MOTION_DOT":"-0.00013345","LAUNCH_DATE":"2021-05-04","APOAPSIS":"548.717","RA_OF_ASC_NODE":"252.2096"}];
